start=new Date('2023-05-27T00:00:00.000Z').valueOf();
sats=[{"OBJECT_TYPE":"PAYLOAD","TLE_LINE2":"2 55286  70.0007  72.2015 0003414 270.3004 210.0968 15.35881131  1303","GP_ID":"232588468","APOAPSIS":"460.641","OBJECT_NAME":"STARLINK-5338","ECCENTRICITY":"0.00034140","TIME_SYSTEM":"UTC","EPOCH":"2023-05-26T22:00:01.999584","INCLINATION":"70.0007","MEAN_MOTION":"15.35881131","RCS_SIZE":"LARGE","CLASSIFICATION_TYPE":"U","PERIOD":"93.757","TLE_LINE1":"1 55286U 23010T   23146.91668981 -.00964071  00000-0 -30135-1 0  9998","OBJECT_ID":"2023-010T","SITE":"AFWTR","ELEMENT_SET_NO":"999","LAUNCH_DATE":"2023-01-19","CENTER_NAME":"EARTH","MEAN_MOTION_DDOT":"0.0000000000000","FILE":"3917850","ARG_OF_PERICENTER":"270.3004","MEAN_MOTION_DOT":"-0.00964071","REV_AT_EPOCH":"130","REF_FRAME":"TEME","SEMIMAJOR_AXIS":"6836.442","MEAN_ANOMALY":"210.0968","RA_OF_ASC_NODE":"72.2015","COUNTRY_CODE":"US","DECAY_DATE":null,"NORAD_CAT_ID":"55286","EPHEMERIS_TYPE":"0","BSTAR":"-0.03013500000000","MEAN_ELEMENT_THEORY":"SGP4","PERIAPSIS":"455.973"},{"ECCENTRICITY":"0.00034900","OBJECT_NAME":"STARLINK-5341","GP_ID":"232589219","APOAPSIS":"361.470","TLE_LINE2":"2 55287  70.0003  68.9194 0003490 256.0756 104.0051 15.69923142 20851","OBJECT_TYPE":"PAYLOAD","INCLINATION":"70.0003","EPOCH":"2023-05-26T21:39:31.770720","TIME_SYSTEM":"UTC","PERIOD":"91.724","CLASSIFICATION_TYPE":"U","RCS_SIZE":"LARGE","MEAN_MOTION":"15.69923142","CENTER_NAME":"EARTH","LAUNCH_DATE":"2023-01-19","ELEMENT_SET_NO":"999","SITE":"AFWTR","OBJECT_ID":"2023-010U","TLE_LINE1":"1 55287U 23010U   23146.90245105  .00001337  00000-0  12891-4 0  9994","FILE":"3917850","MEAN_MOTION_DDOT":"0.0000000000000","SEMIMAJOR_AXIS":"6737.254","REF_FRAME":"TEME","REV_AT_EPOCH":"2085","MEAN_MOTION_DOT":"0.00001337","ARG_OF_PERICENTER":"256.0756","DECAY_DATE":null,"NORAD_CAT_ID":"55287","EPHEMERIS_TYPE":"0","COUNTRY_CODE":"US","RA_OF_ASC_NODE":"68.9194","MEAN_ANOMALY":"104.0051","PERIAPSIS":"356.768","MEAN_ELEMENT_THEORY":"SGP4","BSTAR":"0.00001289100000"},{"ECCENTRICITY":"0.00033300","GP_ID":"232589470","APOAPSIS":"456.523","OBJECT_NAME":"STARLINK-5311","TLE_LINE2":"2 55288  70.0007  72.1532 0003330 269.9851 252.4002 15.37249932  1307","OBJECT_TYPE":"PAYLOAD","INCLINATION":"70.0007","EPOCH":"2023-05-26T22:00:01.999584","TIME_SYSTEM":"UTC","PERIOD":"93.674","RCS_SIZE":"LARGE","CLASSIFICATION_TYPE":"U","MEAN_MOTION":"15.37249932","CENTER_NAME":"EARTH","LAUNCH_DATE":"2023-01-19","ELEMENT_SET_NO":"999","OBJECT_ID":"2023-010V","SITE":"AFWTR","TLE_LINE1":"1 55288U 23010V   23146.91668981 -.00966021  00000-0 -28894-1 0  9996","FILE":"3917850","MEAN_MOTION_DDOT":"0.0000000000000","REF_FRAME":"TEME","SEMIMAJOR_AXIS":"6832.383","REV_AT_EPOCH":"130","ARG_OF_PERICENTER":"269.9851","MEAN_MOTION_DOT":"-0.00966021","RA_OF_ASC_NODE":"72.1532","COUNTRY_CODE":"US","DECAY_DATE":null,"NORAD_CAT_ID":"55288","EPHEMERIS_TYPE":"0","MEAN_ANOMALY":"252.4002","PERIAPSIS":"451.973","BSTAR":"-0.02889400000000","MEAN_ELEMENT_THEORY":"SGP4"},{"CLASSIFICATION_TYPE":"U","RCS_SIZE":"LARGE","PERIOD":"93.744","MEAN_MOTION":"15.36103698","ELEMENT_SET_NO":"999","LAUNCH_DATE":"2023-01-19","CENTER_NAME":"EARTH","TLE_LINE1":"1 55289U 23010W   23146.91668981 -.00964904  00000-0 -29948-1 0  9996","SITE":"AFWTR","OBJECT_ID":"2023-010W","OBJECT_NAME":"STARLINK-5320","GP_ID":"232590221","APOAPSIS":"459.968","ECCENTRICITY":"0.00033970","OBJECT_TYPE":"PAYLOAD","TLE_LINE2":"2 55289  70.0008  72.1938 0003397 270.9524 216.5176 15.36103698  1301","INCLINATION":"70.0008","TIME_SYSTEM":"UTC","EPOCH":"2023-05-26T22:00:01.999584","EPHEMERIS_TYPE":"0","DECAY_DATE":null,"NORAD_CAT_ID":"55289","COUNTRY_CODE":"US","RA_OF_ASC_NODE":"72.1938","MEAN_ANOMALY":"216.5176","PERIAPSIS":"455.324","MEAN_ELEMENT_THEORY":"SGP4","BSTAR":"-0.02994800000000","FILE":"3917850","MEAN_MOTION_DDOT":"0.0000000000000","REV_AT_EPOCH":"130","SEMIMAJOR_AXIS":"6835.781","REF_FRAME":"TEME","MEAN_MOTION_DOT":"-0.00964904","ARG_OF_PERICENTER":"270.9524"},{"FILE":"3917850","MEAN_MOTION_DDOT":"0.0000000000000","REV_AT_EPOCH":"130","SEMIMAJOR_AXIS":"6834.441","REF_FRAME":"TEME","MEAN_MOTION_DOT":"-0.00964325","ARG_OF_PERICENTER":"270.8820","DECAY_DATE":null,"NORAD_CAT_ID":"55290","EPHEMERIS_TYPE":"0","COUNTRY_CODE":"US","RA_OF_ASC_NODE":"72.1771","MEAN_ANOMALY":"230.6824","PERIAPSIS":"454.000","MEAN_ELEMENT_THEORY":"SGP4","BSTAR":"-0.02949500000000","OBJECT_NAME":"STARLINK-5266","GP_ID":"232588969","APOAPSIS":"458.612","ECCENTRICITY":"0.00033740","OBJECT_TYPE":"PAYLOAD","TLE_LINE2":"2 55290  70.0007  72.1771 0003374 270.8820 230.6824 15.36555424  1305","INCLINATION":"70.0007","TIME_SYSTEM":"UTC","EPOCH":"2023-05-26T22:00:01.999584","CLASSIFICATION_TYPE":"U","RCS_SIZE":"LARGE","PERIOD":"93.716","MEAN_MOTION":"15.36555424","ELEMENT_SET_NO":"999","LAUNCH_DATE":"2023-01-19","CENTER_NAME":"EARTH","TLE_LINE1":"1 55290U 23010X   23146.91668981 -.00964325  00000-0 -29495-1 0  9992","SITE":"AFWTR","OBJECT_ID":"2023-010X"},{"MEAN_MOTION":"15.36317061","PERIOD":"93.731","CLASSIFICATION_TYPE":"U","RCS_SIZE":"LARGE","SITE":"AFWTR","OBJECT_ID":"2023-010Y","TLE_LINE1":"1 55291U 23010Y   23146.91668981 -.00964385  00000-0 -29725-1 0  9995","CENTER_NAME":"EARTH","ELEMENT_SET_NO":"999","LAUNCH_DATE":"2023-01-19","TLE_LINE2":"2 55291  70.0008  72.1858 0003395 270.9668 223.2618 15.36317061  1309","OBJECT_TYPE":"PAYLOAD","ECCENTRICITY":"0.00033950","GP_ID":"232588719","APOAPSIS":"459.334","OBJECT_NAME":"STARLINK-5327","EPOCH":"2023-05-26T22:00:01.999584","TIME_SYSTEM":"UTC","INCLINATION":"70.0008","MEAN_ANOMALY":"223.2618","NORAD_CAT_ID":"55291","DECAY_DATE":null,"EPHEMERIS_TYPE":"0","COUNTRY_CODE":"US","RA_OF_ASC_NODE":"72.1858","MEAN_ELEMENT_THEORY":"SGP4","BSTAR":"-0.02972500000000","PERIAPSIS":"454.693","MEAN_MOTION_DDOT":"0.0000000000000","FILE":"3917850","MEAN_MOTION_DOT":"-0.00964385","ARG_OF_PERICENTER":"270.9668","SEMIMAJOR_AXIS":"6835.148","REF_FRAME":"TEME","REV_AT_EPOCH":"130"},{"ECCENTRICITY":"0.00033330","GP_ID":"232589971","APOAPSIS":"455.981","OBJECT_NAME":"STARLINK-5325","TLE_LINE2":"2 55292  70.0010  72.1476 0003333 270.2113 257.7584 15.37433628  1302","OBJECT_TYPE":"PAYLOAD","INCLINATION":"70.0010","EPOCH":"2023-05-26T22:00:01.999584","TIME_SYSTEM":"UTC","PERIOD":"93.663","RCS_SIZE":"LARGE","CLASSIFICATION_TYPE":"U","MEAN_MOTION":"15.37433628","CENTER_NAME":"EARTH","LAUNCH_DATE":"2023-01-19","ELEMENT_SET_NO":"999","OBJECT_ID":"2023-010Z","SITE":"AFWTR","TLE_LINE1":"1 55292U 23010Z   23146.91668981 -.00963898  00000-0 -28653-1 0  9993","FILE":"3917850","MEAN_MOTION_DDOT":"0.0000000000000","REF_FRAME":"TEME","SEMIMAJOR_AXIS":"6831.838","REV_AT_EPOCH":"130","ARG_OF_PERICENTER":"270.2113","MEAN_MOTION_DOT":"-0.00963898","RA_OF_ASC_NODE":"72.1476","COUNTRY_CODE":"US","DECAY_DATE":null,"EPHEMERIS_TYPE":"0","NORAD_CAT_ID":"55292","MEAN_ANOMALY":"257.7584","PERIAPSIS":"451.426","BSTAR":"-0.02865300000000","MEAN_ELEMENT_THEORY":"SGP4"},{"CENTER_NAME":"EARTH","LAUNCH_DATE":"2023-01-19","ELEMENT_SET_NO":"999","SITE":"AFWTR","OBJECT_ID":"2023-010AA","TLE_LINE1":"1 55293U 23010AA  23146.91668981 -.00963652  00000-0 -29028-1 0  9999","PERIOD":"93.688","CLASSIFICATION_TYPE":"U","RCS_SIZE":"LARGE","MEAN_MOTION":"15.37024675","INCLINATION":"70.0009","EPOCH":"2023-05-26T22:00:01.999584","TIME_SYSTEM":"UTC","ECCENTRICITY":"0.00033560","APOAPSIS":"457.208","GP_ID":"232563430","OBJECT_NAME":"STARLINK-5287","TLE_LINE2":"2 55293  70.0009  72.1616 0003356 269.8733 245.8720 15.37024675 20471","OBJECT_TYPE":"PAYLOAD","PERIAPSIS":"452.622","MEAN_ELEMENT_THEORY":"SGP4","BSTAR":"-0.02902800000000","DECAY_DATE":null,"NORAD_CAT_ID":"55293","EPHEMERIS_TYPE":"0","RA_OF_ASC_NODE":"72.1616","COUNTRY_CODE":"US","MEAN_ANOMALY":"245.8720","SEMIMAJOR_AXIS":"6833.050","REF_FRAME":"TEME","REV_AT_EPOCH":"2047","MEAN_MOTION_DOT":"-0.00963652","ARG_OF_PERICENTER":"269.8733","FILE":"3917801","MEAN_MOTION_DDOT":"0.0000000000000"},{"BSTAR":"0.00000536180000","MEAN_ELEMENT_THEORY":"SGP4","PERIAPSIS":"570.173","MEAN_ANOMALY":"96.2828","RA_OF_ASC_NODE":"90.5465","COUNTRY_CODE":"US","NORAD_CAT_ID":"55294","DECAY_DATE":null,"EPHEMERIS_TYPE":"0","ARG_OF_PERICENTER":"263.8020","MEAN_MOTION_DOT":"-0.00000029","REF_FRAME":"TEME","SEMIMAJOR_AXIS":"6950.202","REV_AT_EPOCH":"2032","MEAN_MOTION_DDOT":"0.0000000000000","FILE":"3917850","OBJECT_ID":"2023-010AB","SITE":"AFWTR","TLE_LINE1":"1 55294U 23010AB  23146.89898147 -.00000029  00000-0  53618-5 0  9991","CENTER_NAME":"EARTH","ELEMENT_SET_NO":"999","LAUNCH_DATE":"2023-01-19","MEAN_MOTION":"14.98327111","PERIOD":"96.107","RCS_SIZE":"LARGE","CLASSIFICATION_TYPE":"U","EPOCH":"2023-05-26T21:34:31.999008","TIME_SYSTEM":"UTC","INCLINATION":"70.0006","TLE_LINE2":"2 55294  70.0006  90.5465 0002725 263.8020  96.2828 14.98327111 20325","OBJECT_TYPE":"PAYLOAD","ECCENTRICITY":"0.00027250","APOAPSIS":"573.961","GP_ID":"232588469","OBJECT_NAME":"STARLINK-5286"},{"TLE_LINE1":"1 55295U 23010AC  23146.87396262  .00000223  00000-0  26441-4 0  9999","SITE":"AFWTR","OBJECT_ID":"2023-010AC","ELEMENT_SET_NO":"999","LAUNCH_DATE":"2023-01-19","CENTER_NAME":"EARTH","MEAN_MOTION":"14.98328364","CLASSIFICATION_TYPE":"U","RCS_SIZE":"LARGE","PERIOD":"96.107","TIME_SYSTEM":"UTC","EPOCH":"2023-05-26T20:58:30.370368","INCLINATION":"70.0004","OBJECT_TYPE":"PAYLOAD","TLE_LINE2":"2 55295  70.0004  90.8652 0002765 266.4947  93.5896 14.98328364 20322","OBJECT_NAME":"STARLINK-5293","GP_ID":"232589220","APOAPSIS":"573.985","ECCENTRICITY":"0.00027650","MEAN_ELEMENT_THEORY":"SGP4","BSTAR":"0.00002644100000","PERIAPSIS":"570.141","MEAN_ANOMALY":"93.5896","DECAY_DATE":null,"EPHEMERIS_TYPE":"0","NORAD_CAT_ID":"55295","COUNTRY_CODE":"US","RA_OF_ASC_NODE":"90.8652","MEAN_MOTION_DOT":"0.00000223","ARG_OF_PERICENTER":"266.4947","REV_AT_EPOCH":"2032","SEMIMAJOR_AXIS":"6950.198","REF_FRAME":"TEME","MEAN_MOTION_DDOT":"0.0000000000000","FILE":"3917850"}];
